NORAD_CAT_ID,OBJECT_NAME,OBJECT_TYPE,EPOCH,MEAN_MOTION,ECCENTRICITY,INCLINATION,RA_OF_ASC_NODE,ARG_OF_PERICENTER,MEAN_ANOMALY,BSTAR,MEAN_MOTION_DOT,MEAN_MOTION_DDOT,TLE_LINE0,TLE_LINE1,TLE_LINE2,SEMIMAJOR_AXIS,PERIOD,APOGEE,PERIGEE,DECAYED
53781.0,STARLINK-4462,PAYLOAD,2024-07-19 09:25:12,15.08841835,0.0001705,53.2162,79.9827,72.4069,287.7109,0.00057852,8.932e-05,0.0,0 STARLINK-4462,1 53781U 22111J   24201.39250938  .00008932  00000-0  57852-3 0  9991,2 53781  53.2162  79.9827 0001705  72.4069 287.7109 15.08841835102569,6917.875,95.437,540.919,538.56,0.0
53781.0,STARLINK-4462,PAYLOAD,2024-07-19 22:08:17,15.08845925,0.0001418,53.2176,77.602,85.9241,274.1914,0.00048675,7.468e-05,0.0,0 STARLINK-4462,1 53781U 22111J   24201.92242742  .00007468  00000-0  48675-3 0  9990,2 53781  53.2176  77.6020 0001418  85.9241 274.1914 15.08845925103453,6917.862,95.437,540.708,538.746,0.0
53781.0,STARLINK-4462,PAYLOAD,2024-07-20 09:15:59,15.08843621,0.0001717,53.2158,75.5158,111.0642,249.0534,0.00020459,2.97e-05,0.0,0 STARLINK-4462,1 53781U 22111J   24202.38610509  .00002970  00000-0  20459-3 0  9994,2 53781  53.2158  75.5158 0001717 111.0642 249.0534 15.08843621102718,6917.869,95.437,540.922,538.547,0.0
53781.0,STARLINK-4462,PAYLOAD,2024-07-20 21:59:04,15.08850854,0.0001608,53.2155,73.1376,105.2627,254.8543,0.00031227,4.687e-05,0.0,0 STARLINK-4462,1 53781U 22111J   24202.91602232  .00004687  00000-0  31227-3 0  9999,2 53781  53.2155  73.1376 0001608 105.2627 254.8543 15.08850854103607,6917.847,95.437,540.825,538.6,0.0
53781.0,STARLINK-4462,PAYLOAD,2024-07-21 01:09:50,15.08850977,0.0001576,53.2169,72.5419,108.0691,252.0472,0.00027909,4.158e-05,0.0,0 STARLINK-4462,1 53781U 22111J   24203.04850122  .00004158  00000-0  27909-3 0  9992,2 53781  53.2169  72.5419 0001576 108.0691 252.0472 15.08850977103628,6917.847,95.437,540.802,538.622,0.0
53781.0,STARLINK-4462,PAYLOAD,2024-07-21 20:14:28,15.08846373,0.0001346,53.2161,68.9778,87.7387,272.3759,0.00018589,2.672e-05,0.0,0 STARLINK-4462,1 53781U 22111J   24203.84338446  .00002672  00000-0  18589-3 0  9993,2 53781  53.2161  68.9778 0001346  87.7387 272.3759 15.08846373102938,6917.861,95.437,540.657,538.795,0.0
53781.0,STARLINK-4462,PAYLOAD,2024-07-22 15:19:06,15.08844146,0.0001523,53.2164,65.4093,105.4778,254.6382,0.00016661,2.365e-05,0.0,0 STARLINK-4462,1 53781U 22111J   24204.63826453  .00002365  00000-0  16661-3 0  9999,2 53781  53.2164  65.4093 0001523 105.4778 254.6382 15.08844146103866,6917.868,95.437,540.786,538.679,0.0
53781.0,STARLINK-4462,PAYLOAD,2024-07-22 21:40:38,15.08849864,0.000142,53.2162,64.2218,97.7063,262.4091,0.00022677,3.324e-05,0.0,0 STARLINK-4462,1 53781U 22111J   24204.90322191  .00003324  00000-0  22677-3 0  9999,2 53781  53.2162  64.2218 0001420  97.7063 262.4091 15.08849864103907,6917.85,95.437,540.698,538.733,0.0
53781.0,STARLINK-4462,PAYLOAD,2024-07-23 15:09:53,15.08837139,0.0001898,53.2169,60.9498,88.9103,271.2107,6.4861e-05,7.44e-06,0.0,0 STARLINK-4462,1 53781U 22111J   24205.63186807  .00000744  00000-0  64861-4 0  9997,2 53781  53.2169  60.9498 0001898  88.9103 271.2107 15.08837139104014,6917.889,95.438,541.067,538.441,0.0
53781.0,STARLINK-4462,PAYLOAD,2024-07-24 15:00:40,15.08836935,0.0001891,53.2162,56.4889,99.8958,260.2247,-5.1448e-05,-1.107e-05,0.0,0 STARLINK-4462,1 53781U 22111J   24206.62547135 -.00001107  00000-0 -51448-4 0  9995,2 53781  53.2162  56.4889 0001891  99.8958 260.2247 15.08836935104165,6917.89,95.438,541.063,538.447,0.0
53781.0,STARLINK-4462,PAYLOAD,2024-07-24 22:57:36,15.088415,0.0001674,53.2166,55.0019,94.012,266.1064,0.00016365,2.318e-05,0.0,0 STARLINK-4462,1 53781U 22111J   24206.95667112  .00002318  00000-0  16365-3 0  9990,2 53781  53.2166  55.0019 0001674  94.0120 266.1064 15.08841500103408,6917.876,95.437,540.899,538.583,0.0
53781.0,STARLINK-4462,PAYLOAD,2024-07-25 06:54:32,15.08837518,0.0001732,53.2166,53.515,93.8122,266.3069,0.000211,3.071e-05,0.0,0 STARLINK-4462,1 53781U 22111J   24207.28787419  .00003071  00000-0  21100-3 0  9990,2 53781  53.2166  53.5150 0001732  93.8122 266.3069 15.08837518104267,6917.888,95.438,540.951,538.555,0.0
53781.0,STARLINK-4462,PAYLOAD,2024-07-26 19:28:23,15.08851472,0.0001778,53.2167,46.6753,90.1233,269.9962,0.00027481,4.09e-05,0.0,0 STARLINK-4462,1 53781U 22111J   24208.81138815  .00004090  00000-0  27481-3 0  9990,2 53781  53.2167  46.6753 0001778  90.1233 269.9962 15.08851472103684,6917.845,95.437,540.94,538.48,0.0
53781.0,STARLINK-4462,PAYLOAD,2024-07-26 22:39:10,15.08852213,0.000169,53.2196,46.0808,90.5443,269.5743,0.00024799,3.662e-05,0.0,0 STARLINK-4462,1 53781U 22111J   24208.94386695  .00003662  00000-0  24799-3 0  9998,2 53781  53.2196  46.0808 0001690  90.5443 269.5743 15.08852213104511,6917.843,95.437,540.877,538.539,0.0
53781.0,STARLINK-4462,PAYLOAD,2024-07-27 22:29:57,15.08832889,0.0001946,53.2206,41.6201,88.2142,271.9073,-7.9718e-05,-1.556e-05,0.0,0 STARLINK-4462,1 53781U 22111J   24209.93747606 -.00001556  00000-0 -79718-4 0  9995,2 53781  53.2206  41.6201 0001946  88.2142 271.9073 15.08832889103851,6917.902,95.438,541.113,538.421,0.0
53781.0,STARLINK-4462,PAYLOAD,2024-07-28 12:48:25,15.0885638,0.0001376,53.2183,38.9438,107.1048,253.0095,-0.00035411,-5.922e-05,0.0,0 STARLINK-4462,1 53781U 22111J   24210.53362835 -.00005922  00000-0 -35411-3 0  9992,2 53781  53.2183  38.9438 0001376 107.1048 253.0095 15.08856380103946,6917.83,95.437,540.647,538.743,0.0
53781.0,STARLINK-4462,PAYLOAD,2024-07-28 19:09:58,15.08853903,0.0001411,53.2169,37.7567,84.0323,276.083,6.0445e-06,-1.92e-06,0.0,0 STARLINK-4462,1 53781U 22111J   24210.79858872 -.00000192  00000-0  60445-5 0  9991,2 53781  53.2169  37.7567 0001411  84.0323 276.0830 15.08853903104793,6917.838,95.437,540.679,538.727,0.0
53781.0,STARLINK-4462,PAYLOAD,2024-07-29 12:39:12,15.08845733,0.0001268,53.2169,34.4853,98.0957,262.0179,0.00028461,4.245e-05,0.0,0 STARLINK-4462,1 53781U 22111J   24211.52723323  .00004245  00000-0  28461-3 0  9997,2 53781  53.2169  34.4853 0001268  98.0957 262.0179 15.08845733104099,6917.863,95.437,540.605,538.851,0.0
53781.0,STARLINK-4462,PAYLOAD,2024-07-29 19:00:45,15.08853563,0.0001264,53.2167,33.2963,98.3494,261.7641,0.0003849,5.845e-05,0.0,0 STARLINK-4462,1 53781U 22111J   24211.79218965  .00005845  00000-0  38490-3 0  9997,2 53781  53.2167  33.2963 0001264  98.3494 261.7641 15.08853563104945,6917.839,95.437,540.578,538.83,0.0
53781.0,STARLINK-4462,PAYLOAD,2024-07-30 12:29:59,15.08841132,0.0001283,53.2183,30.0245,103.6106,256.5029,3.6786e-05,2.98e-06,0.0,0 STARLINK-4462,1 53781U 22111J   24212.52083185  .00000298  00000-0  36786-4 0  9997,2 53781  53.2183  30.0245 0001283 103.6106 256.5029 15.08841132104246,6917.877,95.437,540.629,538.854,0.0
53781.0,STARLINK-4462,PAYLOAD,2024-07-30 18:51:32,15.08854294,0.0001467,53.2185,28.8353,93.5173,266.5987,0.00030673,4.599e-05,0.0,0 STARLINK-4462,1 53781U 22111J   24212.78578780  .00004599  00000-0  30673-3 0  9991,2 53781  53.2185  28.8353 0001467  93.5173 266.5987 15.08854294104289,6917.837,95.437,540.717,538.687,0.0
53781.0,STARLINK-4462,PAYLOAD,2024-07-31 12:20:47,15.08838439,0.0001623,53.2177,25.5673,105.5819,254.5352,7.5096e-05,9.07e-06,0.0,0 STARLINK-4462,1 53781U 22111J   24213.51443459  .00000907  00000-0  75096-4 0  9995,2 53781  53.2177  25.5673 0001623 105.5819 254.5352 15.08838439104392,6917.885,95.438,540.873,538.627,0.0
53781.0,STARLINK-4462,PAYLOAD,2024-07-31 18:42:19,15.08840488,0.0001381,53.2181,24.3755,110.6474,249.4666,0.00016079,2.272e-05,0.0,0 STARLINK-4462,1 53781U 22111J   24213.77939407  .00002272  00000-0  16079-3 0  9998,2 53781  53.2181  24.3755 0001381 110.6474 249.4666 15.08840488105243,6917.879,95.438,540.699,538.789,0.0
53781.0,STARLINK-4462,PAYLOAD,2024-08-01 10:36:10,15.08857217,0.0001313,53.2178,21.403,109.834,250.2794,0.00078102,0.0001217,0.0,0 STARLINK-4462,1 53781U 22111J   24214.44179187  .00012170  00000-0  78102-3 0  9997,2 53781  53.2178  21.4030 0001313 109.8340 250.2794 15.08857217104531,6917.828,95.436,540.601,538.784,0.0
53781.0,STARLINK-4462,PAYLOAD,2024-08-01 18:33:06,15.08857213,0.000123,53.2178,19.9157,107.8269,252.2857,0.00069257,0.00010757,0.0,0 STARLINK-4462,1 53781U 22111J   24214.77298999  .00010757  00000-0  69257-3 0  9996,2 53781  53.2178  19.9157 0001230 107.8269 252.2857 15.08857213105392,6917.828,95.436,540.544,538.842,0.0
53781.0,STARLINK-4462,PAYLOAD,2024-08-02 04:05:25,15.08845437,0.0001203,53.216,18.1313,91.7438,268.3691,0.00020226,2.933e-05,0.0,0 STARLINK-4462,1 53781U 22111J   24215.17043151  .00002933  00000-0  20226-3 0  9999,2 53781  53.2160  18.1313 0001203  91.7438 268.3691 15.08845437104643,6917.864,95.437,540.561,538.897,0.0
53781.0,STARLINK-4462,PAYLOAD,2024-08-02 15:13:07,15.08829659,0.0002207,53.2167,16.0451,92.6013,267.5231,-5.2933e-05,-1.13e-05,0.0,0 STARLINK-4462,1 53781U 22111J   24215.63411966 -.00001130  00000-0 -52933-4 0  9994,2 53781  53.2167  16.0451 0002207  92.6013 267.5231 15.08829659105521,6917.912,95.438,541.304,538.25,0.0
53781.0,STARLINK-4462,PAYLOAD,2024-08-02 19:59:17,15.08839447,0.0001417,53.2173,15.1564,93.0972,267.0182,0.00012315,1.673e-05,0.0,0 STARLINK-4462,1 53781U 22111J   24215.83283886  .00001673  00000-0  12315-3 0  9993,2 53781  53.2173  15.1564 0001417  93.0972 267.0182 15.08839447104743,6917.882,95.438,540.727,538.767,0.0
53781.0,STARLINK-4462,PAYLOAD,2024-08-03 15:03:55,15.08849608,0.0001647,53.217,11.588,78.7735,281.3442,0.00056234,8.675e-05,0.0,0 STARLINK-4462,1 53781U 22111J   24216.62772122  .00008675  00000-0  56234-3 0  9994,2 53781  53.2170  11.5880 0001647  78.7735 281.3442 15.08849608105674,6917.851,95.437,540.855,538.577,0.0
53781.0,STARLINK-4462,PAYLOAD,2024-08-03 19:50:04,15.08863883,0.0001466,53.2161,10.6937,89.1997,270.9163,0.0012372,0.0001947,0.0,0 STARLINK-4462,1 53781U 22111J   24216.82643761  .00019470  00000-0  12372-2 0  9991,2 53781  53.2161  10.6937 0001466  89.1997 270.9163 15.08863883105701,6917.807,95.436,540.687,538.658,0.0
